SL-14 R/B               
1 19574U 88093B   25082.90973296  .00001740  00000+0  19946-3 0  9999
2 19574  82.5348  11.1891 0022224 116.5437 313.3911 14.85205402948966
SL-16 R/B               
1 19650U 88102B   25082.98260141  .00000429  00000+0  24124-3 0  9998
2 19650  71.0002 169.3796 0014675 193.5552 166.5179 14.16087165877520
INTERCOSMOS 24          
1 20261U 89080A   25082.77798037  .00002994  00000+0  88049-3 0  9996
2 20261  82.6094 332.5983 1191477  26.7463 339.0297 12.58874304622637
SL-14 R/B               
1 20262U 89080C   25082.91453358  .00000771  00000+0  23549-3 0  9992
2 20262  82.5965  38.4057 1230021 266.4378  79.5596 12.50238981615889
DELTA 1 R/B             
1 20323U 89089B   25082.97297333  .00001316  00000+0  33605-3 0  9994
2 20323  97.1147 340.4671 0070197 148.9412 211.5965 14.50286408844899
ARIANE 40 R/B           
1 20443U 90005H   25082.91519318  .00001232  00000+0  40814-3 0  9998
2 20443  98.3545 148.0641 0010450 173.1733 186.9600 14.39543876842338
DELTA 2 R/B(1)          
1 20453U 90008B   25082.79317789  .00035870  00000+0  91139-3 0  9997
2 20453  35.6121 260.5511 0151994 319.5834  39.3683 15.27614178872030
COSMOS 2058             
1 20465U 90010A   25082.88115940  .00011410  00000+0  73769-3 0  9991
2 20465  82.4905  31.8466 0013150  80.4052 279.8661 15.08029038889318
SL-14 R/B               
1 20466U 90010B   25082.91517858  .00001623  00000+0  19554-3 0  9997
2 20466  82.5010 236.6981 0020363  19.9089 340.2916 14.83140822876482
SL-14 R/B               
1 20511U 90018B   25082.79961750  .00001699  00000+0  21216-3 0  9997
2 20511  82.5250 190.9646 0016865 161.8011 198.3810 14.81733272870612
HST                     
1 20580U 90037B   25082.89165243  .00015749  00000+0  62410-3 0  9990
2 20580  28.4670 262.5827 0001569 212.9844 147.0652 15.23924958719917
SL-16 R/B               
1 20625U 90046B   25082.91667233 -.00000067  00000+0 -99424-5 0  9995
2 20625  70.9994 314.5594 0012238 123.0264 237.2036 14.14946860798774
COSMOS 2084             
1 20663U 90055A   25083.00572665  .00007498  00000+0  53826-3 0  9999
2 20663  62.7897  89.1954 0073927 145.8763 214.7122 15.02898387883577
SL-6 R/B(2)             
1 20666U 90055D   25082.90556518  .00006765  00000+0  52700-3 0  9995
2 20666  62.7861   4.7406 0040643 175.2481 184.9012 15.01441932885486
SL-8 R/B                
1 20775U 90078B   25082.80932043  .00033907  00000+0  11470-2 0  9997
2 20775  82.9114 203.3062 0414759 102.0930 262.7064 14.75410922757336
SL-8 R/B                
1 21088U 91006B   25082.92892243  .00000219  00000+0  20546-3 0  9992
2 21088  82.9387  70.9771 0021226 299.8104 120.8056 13.77440242715789
OKEAN-3                 
1 21397U 91039A   25082.72075973  .00009026  00000+0  68391-3 0  9997
2 21397  82.5183 316.1502 0016350  84.3876 275.9213 15.02047328812305
COSMOS 2151             
1 21422U 91042A   25082.88843391  .00006719  00000+0  56079-3 0  9990
2 21422  82.4960  61.5236 0013211 156.4591 203.7240 14.98357442810637
SL-14 R/B               
1 21423U 91042B   25082.84833479  .00001481  00000+0  18603-3 0  9995
2 21423  82.4965 189.0923 0016060 317.5485  42.4486 14.81438933822167
ERS-1                   
1 21574U 91050A   25082.90401131  .00001162  00000+0  38834-3 0  9998
2 21574  98.7938  87.2719 0032539 160.7018 199.5409 14.39102905765272
ARIANE 40 R/B           
1 21610U 91050F   25082.88628973  .00001362  00000+0  42328-3 0  9996
2 21610  98.2494 142.3173 0004184  69.2046 290.9592 14.42531429768410
INTERCOSMOS 25          
1 21819U 91086A   25082.71850869  .00004882  00000+0  95417-3 0  9996
2 21819  82.6073 162.0074 1493785 152.8012 216.0052 12.10586044454195
SL-8 R/B                
1 21876U 92008B   25082.79533694  .00000155  00000+0  14371-3 0  9995
2 21876  82.9308 168.7259 0035387  36.9535  86.3221 13.75910071661167
SL-8 R/B                
1 21938U 92020B   25083.21682454  .00000130  00000+0  11900-3 0  9993
2 21938  82.9290  54.0444 0028593 193.4541 177.6893 13.75490771653256
USA 81                  
1 21949U 92023A   25082.74285058  .00000580  00000+0  20823-3 0  9997
2 21949  85.0106 333.8963 0002715  83.5476 276.6026 14.32200288 44557
COSMOS 2219             
1 22219U 92076A   25082.93252031  .00000098  00000+0  76335-4 0  9996
2 22219  71.0626  31.2634 0017738   7.8360 352.3036 14.14011743668793
SL-16 R/B               
1 22220U 92076B   25083.11125769  .00000359  00000+0  20296-3 0  9990
2 22220  71.0007 206.8183 0015108 269.4237 263.3033 14.16788351672505
COSMOS 2221             
1 22236U 92080A   25082.92073628  .00005171  00000+0  47720-3 0  9994
2 22236  82.5017 254.5055 0013571 291.6172  68.3602 14.94405285728375
SL-16 R/B               
1 22285U 92093B   25082.92430980  .00000477  00000+0  26911-3 0  9993
2 22285  71.0240  20.5735 0002747 148.8436 211.2851 14.15379337663526
COSMOS 2228             
1 22286U 92094A   25082.81327254  .00007184  00000+0  64918-3 0  9993
2 22286  82.5195 212.7015 0019418  46.3651 313.9177 14.95194693723596
SL-16 R/B               
1 22566U 93016B   25082.85962582  .00000319  00000+0  18843-3 0  9991
2 22566  71.0073 231.9888 0008912 148.2970 211.8691 14.15248114652531
COSMOS 2242             
1 22626U 93024A   25082.92647351  .00006722  00000+0  61606-3 0  9998
2 22626  82.5174 241.6458 0017613  47.8874 312.3840 14.94660860727969
SL-16 R/B               
1 22803U 93059B   25082.89093802  .00000483  00000+0  26297-3 0  9990
2 22803  70.9917  30.8472 0016302  17.6407 342.5279 14.17155147629837
ARIANE 40 R/B           
1 22830U 93061H   25083.11692831  .00000951  00000+0  36628-3 0  9995
2 22830  98.5339 153.0274 0009853 237.5563 122.4668 14.32588414644151
COSMOS 2278             
1 23087U 94023A   25083.21929960  .00000067  00000+0  59718-4 0  9990
2 23087  71.0548 188.2893 0010139 217.5591 142.4825 14.14274680595507
SL-16 R/B               
1 23088U 94023B   25082.72242002 -.00000160  00000+0 -58300-4 0  9993
2 23088  70.9977  87.9139 0001304 154.0470 206.0718 14.14950726596449
SL-16 R/B               
1 23343U 94074B   25083.17375697  .00001647  00000+0  23016-3 0  9994
2 23343  97.7502 122.4784 0005189 285.4928 115.2810 14.78902992635649
SL-16 R/B               
1 23405U 94077B   25082.91157410  .00000369  00000+0  21307-3 0  9999
2 23405  70.9850  10.4213 0003919 305.8208  54.2551 14.15499178566596
ARIANE 40+ R/B          
1 23561U 95021B   25082.83476878  .00001218  00000+0  40520-3 0  9997
2 23561  98.4903 153.2174 0007958 111.0754   3.5956 14.39438267568760
SL-16 R/B               
1 23705U 95058B   25083.04240970  .00000137  00000+0  94370-4 0  9995
2 23705  71.0227 196.3983 0014791 290.6230  69.3306 14.15438064518536
SL-16 R/B               
1 24298U 96051B   25083.03223555 -.00000064  00000+0 -81441-5 0  9993
2 24298  70.7754 197.2820 0018202 290.0136  69.9024 14.12433668472393
ORBVIEW 2 (SEASTAR)     
1 24883U 97037A   25082.91564507  .00001298  00000+0  47059-3 0  9992
2 24883  98.8126 233.8779 0002533  38.1549 321.9815 14.35157183458153
SL-16 R/B               
1 25400U 98043G   25083.11205859  .00000362  00000+0  17062-3 0  9993
2 25400  98.7794  30.0122 0009094 316.8814  43.1652 14.25942727389259
SL-16 R/B               
1 25407U 98045B   25083.01303275  .00000207  00000+0  12863-3 0  9994
2 25407  71.0116 198.9994 0008581 214.1580 145.8992 14.16121422377726
ISS (ZARYA)             
1 25544U 98067A   25082.96554193  .00035444  00000+0  62786-3 0  9990
2 25544  51.6390   9.1204 0004001  46.9459  49.3885 15.49921332501949
CZ-4B R/B               
1 25732U 99025C   25083.09021638  .00000376  00000+0  20331-3 0  9998
2 25732  98.7111 129.7088 0036013 272.5980 107.2445 14.18159464338616
OKEAN-O                 
1 25860U 99039A   25082.89196974  .00002707  00000+0  36827-3 0  9995
2 25860  97.9936 140.3786 0001747  77.8565 282.2842 14.79600314382503
SL-16 R/B               
1 25861U 99039B   25082.87805369  .00002269  00000+0  29864-3 0  9995
2 25861  98.0468 136.4850 0013928 318.6522  41.3634 14.81109678384928
DELTA 2 R/B             
1 25876U 99041E   25082.92777127  .00003480  00000+0  60062-3 0  9991
2 25876  51.7605 260.6865 0508783  34.3717 328.9051 14.10470479313500
HELIOS 1B               
1 25977U 99064A   25082.76229688  .00005357  00000+0  61756-3 0  9990
2 25977  98.2068 329.4615 0002470 104.4033 255.7455 14.86120847633111
TERRA                   
1 25994U 99068A   25083.07603693  .00001898  00000+0  39995-3 0  9996
2 25994  98.0076 143.9007 0002201 172.2520 207.3518 14.60568059344011
SL-16 R/B               
1 26070U 00006B   25082.79650881 -.00000090  00000+0 -21530-4 0  9997
2 26070  71.0001 115.6063 0016936 347.4878  12.5822 14.15755212298893
TITAN 4B R/B            
1 26474U 00047B   25083.01385386  .00009055  00000+0  61117-3 0  9993
2 26474  67.9914 304.1058 0039308  73.5226 287.0235 15.06356654340128
ENVISAT                 
1 27386U 02009A   25083.14557802  .00000571  00000+0  19941-3 0  9996
2 27386  98.3248  41.1632 0001316  82.1255 288.4522 14.38875006208837
IDEFIX & ARIANE 42P R/B 
1 27422U 02021B   25082.80880111  .00001179  00000+0  46689-3 0  9999
2 27422  98.5548  21.3898 0012575 136.0536 224.1649 14.30703125193842
AQUA                    
1 27424U 02022A   25083.14854568  .00003646  00000+0  75269-3 0  9994
2 27424  98.3686  40.4854 0001033  55.4417 315.7701 14.61014090217571
CZ-4B R/B               
1 27432U 02024C   25082.89329418  .00000234  00000+0  14435-3 0  9995
2 27432  98.9348 132.0219 0049228 299.0537 235.4239 14.14462794179646
MIDORI II (ADEOS-II)    
1 27597U 02056A   25083.11024235  .00001309  00000+0  53559-3 0  9991
2 27597  98.7294  35.2835 0000773  26.2954 333.8267 14.28945412160203
H-2A R/B                
1 27601U 02056E   25082.91638801  .00001127  00000+0  41111-3 0  9993
2 27601  98.2708  52.7920 0071545 126.5749 294.2211 14.33408623163851
